NORAD_CAT_ID,OBJECT_NAME,OBJECT_TYPE,EPOCH,MEAN_MOTION,ECCENTRICITY,INCLINATION,RA_OF_ASC_NODE,ARG_OF_PERICENTER,MEAN_ANOMALY,BSTAR,MEAN_MOTION_DOT,MEAN_MOTION_DDOT,TLE_LINE0,TLE_LINE1,TLE_LINE2,SEMIMAJOR_AXIS,PERIOD,APOGEE,PERIGEE,DECAYED
52587.0,STARLINK-3867,PAYLOAD,2023-11-19 04:45:13,15.08848256,0.0001613,53.2178,296.5786,85.0513,275.0664,0.00010607,1.401e-05,0.0,0 STARLINK-3867,1 52587U 22051BD  23323.19807490  .00001401  00000-0  10607-3 0  9991,2 52587  53.2178 296.5786 0001613  85.0513 275.0664 15.08848256 84550,6917.855,95.437,540.836,538.604,0.0
52587.0,STARLINK-3867,PAYLOAD,2023-11-20 04:36:01,15.08837676,0.0001622,53.2184,292.1182,91.1483,268.9695,-3.2103e-05,-7.99e-06,0.0,0 STARLINK-3867,1 52587U 22051BD  23324.19168489 -.00000799  00000-0 -32103-4 0  9997,2 52587  53.2184 292.1182 0001622  91.1483 268.9695 15.08837676 84776,6917.887,95.438,540.875,538.63,0.0
52587.0,STARLINK-3867,PAYLOAD,2023-11-20 07:46:47,15.08832726,0.0001724,53.2183,291.522,98.1052,262.0136,6.7e-05,7.78e-06,0.0,0 STARLINK-3867,1 52587U 22051BD  23324.32416510  .00000778  00000-0  67000-4 0  9992,2 52587  53.2183 291.5220 0001724  98.1052 262.0136 15.08832726 84724,6917.903,95.438,540.96,538.575,0.0
52587.0,STARLINK-3867,PAYLOAD,2023-11-21 04:26:47,15.08849806,0.0001608,53.2181,287.6567,92.2566,267.861,6.3406e-05,7.21e-06,0.0,0 STARLINK-3867,1 52587U 22051BD  23325.18527266  .00000721  00000-0  63406-4 0  9992,2 52587  53.2181 287.6567 0001608  92.2566 267.8610 15.08849806 84927,6917.85,95.437,540.828,538.603,0.0
52587.0,STARLINK-3867,PAYLOAD,2023-11-21 06:02:10,15.08852386,0.000174,53.2191,287.3596,94.6499,265.4692,6.8826e-05,8.08e-06,0.0,0 STARLINK-3867,1 52587U 22051BD  23325.25151122  .00000808  00000-0  68826-4 0  9991,2 52587  53.2191 287.3596 0001740  94.6499 265.4692 15.08852386 84869,6917.843,95.437,540.911,538.504,0.0
52587.0,STARLINK-3867,PAYLOAD,2023-11-21 21:56:02,15.08836703,0.0001443,53.2184,284.3849,100.4124,259.7031,7.8884e-05,9.68e-06,0.0,0 STARLINK-3867,1 52587U 22051BD  23325.91392125  .00000968  00000-0  78884-4 0  9996,2 52587  53.2184 284.3849 0001443 100.4124 259.7031 15.08836703 84969,6917.89,95.438,540.754,538.757,0.0
52587.0,STARLINK-3867,PAYLOAD,2023-11-22 02:42:11,15.08840741,0.0001822,53.2201,283.4952,105.9892,254.1301,0.00013752,1.901e-05,0.0,0 STARLINK-3867,1 52587U 22051BD  23326.11263776  .00001901  00000-0  13752-3 0  9998,2 52587  53.2201 283.4952 0001822 105.9892 254.1301 15.08840741 85065,6917.878,95.438,541.004,538.483,0.0
52587.0,STARLINK-3867,PAYLOAD,2023-11-22 04:17:34,15.0884502,0.0001637,53.2188,283.1961,103.9571,256.1604,0.00014084,1.954e-05,0.0,0 STARLINK-3867,1 52587U 22051BD  23326.17887519  .00001954  00000-0  14084-3 0  9998,2 52587  53.2188 283.1961 0001637 103.9571 256.1604 15.08845020 85009,6917.865,95.437,540.862,538.598,0.0
52587.0,STARLINK-3867,PAYLOAD,2023-11-23 07:19:07,15.08852497,0.0001672,53.2178,278.1376,100.0356,260.0825,5.9766e-05,6.64e-06,0.0,0 STARLINK-3867,1 52587U 22051BD  23327.30494867  .00000664  00000-0  59766-4 0  9998,2 52587  53.2178 278.1376 0001672 100.0356 260.0825 15.08852497 85241,6917.842,95.437,540.864,538.551,0.0
52587.0,STARLINK-3867,PAYLOAD,2023-11-24 03:59:09,15.08827919,0.0001747,53.2184,274.2753,83.7781,276.341,-0.00013789,-2.481e-05,0.0,0 STARLINK-3867,1 52587U 22051BD  23328.16608763 -.00002481  00000-0 -13789-3 0  9990,2 52587  53.2184 274.2753 0001747  83.7781 276.3410 15.08827919 85371,6917.917,95.438,540.991,538.574,0.0
52587.0,STARLINK-3867,PAYLOAD,2023-11-24 07:09:56,15.08830952,0.0001657,53.2179,273.6766,94.9003,265.2179,-9.2116e-05,-1.753e-05,0.0,0 STARLINK-3867,1 52587U 22051BD  23328.29856583 -.00001753  00000-0 -92116-4 0  9992,2 52587  53.2179 273.6766 0001657  94.9003 265.2179 15.08830952 85328,6917.908,95.438,540.919,538.627,0.0
52587.0,STARLINK-3867,PAYLOAD,2023-11-25 03:49:56,15.08845794,0.000176,53.2184,269.8116,83.9566,276.1626,0.00028263,4.214e-05,0.0,0 STARLINK-3867,1 52587U 22051BD  23329.15968529  .00004214  00000-0  28263-3 0  9996,2 52587  53.2184 269.8116 0001760  83.9566 276.1626 15.08845794 85527,6917.863,95.437,540.945,538.51,0.0
52587.0,STARLINK-3867,PAYLOAD,2023-11-25 05:25:19,15.08850066,0.0001836,53.2184,269.5152,107.5546,252.5647,0.0004269,6.514e-05,0.0,0 STARLINK-3867,1 52587U 22051BD  23329.22592373  .00006514  00000-0  42690-3 0  9999,2 52587  53.2184 269.5152 0001836 107.5546 252.5647 15.08850066 85461,6917.85,95.437,540.985,538.445,0.0
52587.0,STARLINK-3867,PAYLOAD,2023-11-26 03:40:43,15.08874374,0.0001683,53.2184,265.3529,80.027,280.0912,0.00088411,0.00013824,0.0,0 STARLINK-3867,1 52587U 22051BD  23330.15327700  .00013824  00000-0  88411-3 0  9996,2 52587  53.2184 265.3529 0001683  80.0270 280.0912 15.08874374 85674,6917.775,95.435,540.805,538.476,0.0
52587.0,STARLINK-3867,PAYLOAD,2023-11-27 01:56:08,15.0882608,0.0001669,53.2185,261.1926,99.706,260.412,-0.00022612,-3.884e-05,0.0,0 STARLINK-3867,1 52587U 22051BD  23331.08065273 -.00003884  00000-0 -22612-3 0  9991,2 52587  53.2185 261.1926 0001669  99.7060 260.4120 15.08826080 85818,6917.923,95.438,540.943,538.633,0.0
52587.0,STARLINK-3867,PAYLOAD,2023-11-27 05:06:54,15.08827087,0.0001663,53.2186,260.5962,101.0428,259.0751,-0.00018179,-3.179e-05,0.0,0 STARLINK-3867,1 52587U 22051BD  23331.21313392 -.00003179  00000-0 -18179-3 0  9994,2 52587  53.2186 260.5962 0001663 101.0428 259.0751 15.08827087 85767,6917.92,95.438,540.935,538.634,0.0
52587.0,STARLINK-3867,PAYLOAD,2023-11-28 01:46:54,15.0884714,0.0001956,53.2196,256.726,80.3069,279.8144,0.00043311,6.613e-05,0.0,0 STARLINK-3867,1 52587U 22051BD  23332.07424676  .00006613  00000-0  43311-3 0  9997,2 52587  53.2196 256.7260 0001956  80.3069 279.8144 15.08847140 85961,6917.859,95.437,541.077,538.37,0.0
52587.0,STARLINK-3867,PAYLOAD,2023-11-28 04:57:41,15.08850295,0.0002002,53.2198,256.1282,84.8443,275.2778,0.00056799,8.766e-05,0.0,0 STARLINK-3867,1 52587U 22051BD  23332.20672613  .00008766  00000-0  56799-3 0  9993,2 52587  53.2198 256.1282 0002002  84.8443 275.2778 15.08850295 85912,6917.849,95.437,541.099,538.329,0.0
52587.0,STARLINK-3867,PAYLOAD,2023-11-29 00:02:18,15.08852367,0.0002013,53.2183,252.5567,125.2898,234.8283,0.00027422,4.08e-05,0.0,0 STARLINK-3867,1 52587U 22051BD  23333.00160529  .00004080  00000-0  27422-3 0  9996,2 52587  53.2183 252.5567 0002013 125.2898 234.8283 15.08852367 86104,6917.843,95.437,541.1,538.315,0.0
52587.0,STARLINK-3867,PAYLOAD,2023-11-29 04:48:28,15.08852907,0.0001747,53.218,251.6724,102.137,257.9817,0.00031295,4.698e-05,0.0,0 STARLINK-3867,1 52587U 22051BD  23333.20032659  .00004698  00000-0  31295-3 0  9998,2 52587  53.2180 251.6724 0001747 102.1370 257.9817 15.08852907 86062,6917.841,95.437,540.914,538.497,0.0
52587.0,STARLINK-3867,PAYLOAD,2023-11-30 01:28:29,15.08840474,0.0001757,53.2178,247.8084,90.2726,269.8468,1.0112e-06,-2.72e-06,0.0,0 STARLINK-3867,1 52587U 22051BD  23334.06144748 -.00000272  00000-0  10112-5 0  9998,2 52587  53.2178 247.8084 0001757  90.2726 269.8468 15.08840474 86260,6917.879,95.438,540.959,538.528,0.0
52587.0,STARLINK-3867,PAYLOAD,2023-12-01 04:30:02,15.08840039,0.0001805,53.217,242.7521,112.9742,247.1441,0.00015768,2.222e-05,0.0,0 STARLINK-3867,1 52587U 22051BD  23335.18753223  .00002222  00000-0  15768-3 0  9992,2 52587  53.2170 242.7521 0001805 112.9742 247.1441 15.08840039 86432,6917.88,95.438,540.994,538.497,0.0
52587.0,STARLINK-3867,PAYLOAD,2023-12-01 21:59:16,15.08853978,0.0001835,53.2166,239.4822,117.8026,242.3153,0.00030427,4.56e-05,0.0,0 STARLINK-3867,1 52587U 22051BD  23335.91616778  .00004560  00000-0  30427-3 0  9992,2 52587  53.2166 239.4822 0001835 117.8026 242.3153 15.08853978 86473,6917.838,95.437,540.972,538.433,0.0
52587.0,STARLINK-3867,PAYLOAD,2023-12-02 01:10:03,15.08867968,0.0001602,53.2169,238.8931,86.6145,273.5031,0.0008032,0.00012528,0.0,0 STARLINK-3867,1 52587U 22051BD  23336.04864634  .00012528  00000-0  80320-3 0  9993,2 52587  53.2169 238.8931 0001602  86.6145 273.5031 15.08867968 86562,6917.795,95.436,540.768,538.552,0.0
52587.0,STARLINK-3867,PAYLOAD,2023-12-02 21:50:04,15.08826911,0.0001577,53.2166,235.0234,117.2028,242.9125,-0.00019941,-3.459e-05,0.0,0 STARLINK-3867,1 52587U 22051BD  23336.90977903 -.00003459  00000-0 -19941-3 0  9998,2 52587  53.2166 235.0234 0001577 117.2028 242.9125 15.08826911 86620,6917.92,95.438,540.876,538.694,0.0
52587.0,STARLINK-3867,PAYLOAD,2023-12-03 01:00:51,15.08823499,0.0001529,53.2164,234.4293,117.7101,242.4047,-0.00023891,-4.086e-05,0.0,0 STARLINK-3867,1 52587U 22051BD  23337.04226114 -.00004086  00000-0 -23891-3 0  9991,2 52587  53.2164 234.4293 0001529 117.7101 242.4047 15.08823499 86716,6917.931,95.439,540.854,538.738,0.0
52587.0,STARLINK-3867,PAYLOAD,2023-12-03 16:54:43,15.08832253,0.0001496,53.2166,231.4605,82.8159,277.3003,0.0001693,2.407e-05,0.0,0 STARLINK-3867,1 52587U 22051BD  23337.70466639  .00002407  00000-0  16930-3 0  9991,2 52587  53.2166 231.4605 0001496  82.8159 277.3003 15.08832253 86818,6917.904,95.438,540.804,538.734,0.0
52587.0,STARLINK-3867,PAYLOAD,2023-12-03 23:16:15,15.08838171,0.0001641,53.2159,230.2725,89.4846,270.6334,0.0001328,1.826e-05,0.0,0 STARLINK-3867,1 52587U 22051BD  23337.96962612  .00001826  00000-0  13280-3 0  9990,2 52587  53.2159 230.2725 0001641  89.4846 270.6334 15.08838171 86782,6917.886,95.438,540.886,538.616,0.0
52587.0,STARLINK-3867,PAYLOAD,2023-12-05 02:17:48,15.08850011,0.0001795,53.2163,225.2102,132.5899,227.5245,0.0003987,6.065e-05,0.0,0 STARLINK-3867,1 52587U 22051BD  23339.09569688  .00006065  00000-0  39870-3 0  9995,2 52587  53.2163 225.2102 0001795 132.5899 227.5245 15.08850011 87025,6917.85,95.437,540.957,538.473,0.0
52587.0,STARLINK-3867,PAYLOAD,2023-12-06 02:08:35,15.08843087,0.0002214,53.2164,220.747,150.4607,209.651,-5.7422e-05,-1.202e-05,0.0,0 STARLINK-3867,1 52587U 22051BD  23340.08929444 -.00001202  00000-0 -57422-4 0  9990,2 52587  53.2164 220.7470 0002214 150.4607 209.6510 15.08843087 87174,6917.871,95.437,541.268,538.204,0.0
